STARLINK-30103          
1 56290U 23056E   24020.61065309  .00011427  00000+0  85956-3 0  9996
2 56290  43.0022 123.2859 0001278 278.6142  81.4555 15.02537513 42830
STARLINK-30113          
1 56291U 23056F   24020.61730846  .00011034  00000+0  83033-3 0  9990
2 56291  43.0024 123.3293 0001398 269.6049  90.4634 15.02547101 42837
STARLINK-30098          
1 56292U 23056G   24020.60733250  .00021768  00000+0  16197-2 0  9993
2 56292  43.0021 123.2504 0001288 278.3621  81.7075 15.02577924 42838
STARLINK-30090          
1 56293U 23056H   24020.60077563  .00022692  00000+0  16891-2 0  9990
2 56293  43.0018 124.0432 0001541 278.2508  81.8160 15.02544521 42821
STARLINK-30049          
1 56294U 23056J   24020.59743939  .00001062  00000+0  93653-4 0  9997
2 56294  43.0033 123.9606 0001142 280.2366  79.8347 15.02542562 42829
STARLINK-30083          
1 56295U 23056K   24020.59128493  .00002356  00000+0  18940-3 0  9992
2 56295  43.0032  97.8266 0001259 273.8220  86.2479 15.02541658 43123
STARLINK-30089          
1 56296U 23056L   24020.59153754  .00012150  00000+0  91268-3 0  9998
2 56296  43.0034  84.7915 0001093 280.9148  79.1571 15.02547251 42674
STARLINK-30086          
1 56297U 23056M   24020.77689448  .00035126  00000+0  26005-2 0  9997
2 56297  43.0021 122.7277 0001288 286.9766  73.0935 15.02563033 42250
STARLINK-30109          
1 56298U 23056N   24020.78355092  .00035313  00000+0  26138-2 0  9999
2 56298  43.0022 122.7796 0001290 280.5377  79.5320 15.02568615 42259
STARLINK-30108          
1 56299U 23056P   24020.61768116  .00024779  00000+0  18427-2 0  9993
2 56299  43.0022 111.1204 0001290 277.1339  82.9356 15.02540652 43031
STARLINK-30104          
1 56300U 23056Q   24020.73694470  .00004723  00000+0  36433-3 0  9995
2 56300  43.0021 122.5132 0001304 277.2379  82.8315 15.02549569 42253
STARLINK-30101          
1 56301U 23056R   24020.56747989  .00023666  00000+0  17607-2 0  9999
2 56301  43.0022 123.8015 0001445 273.9787  86.0890 15.02543253 42888
STARLINK-30111          
1 56302U 23056S   24020.56080850  .00002522  00000+0  20166-3 0  9990
2 56302  43.0023 123.6869 0001404 268.5677  91.5004 15.02540888 42887
STARLINK-30097          
1 56303U 23056T   24020.66667824  .00114770  00000+0  40834-2 0  9996
2 56303  43.0008  97.5980 0024422  25.1224 210.4488 15.27569913  5888
STARLINK-30099          
1 56304U 23056U   24020.69043809  .00027272  00000+0  20244-2 0  9994
2 56304  43.0023 122.9299 0001248 278.7290  81.3411 15.02567690 42247
STARLINK-30094          
1 56305U 23056V   24020.72690471  .00032048  00000+0  24269-2 0  9990
2 56305  43.0023 122.3419 0001285 282.6729  77.3969 15.01743347 42267
STARLINK-30112          
1 56306U 23056W   24020.69709872  .00025159  00000+0  18704-2 0  9995
2 56306  43.0026 122.9910 0001350 288.7051  71.3644 15.02544140 42255
STARLINK-6038           
1 56317U 23058A   24020.57750261 -.00000318  00000+0 -20156-4 0  9992
2 56317  97.6549  23.4506 0001578 173.2112 186.9134 15.01259662 40746
STARLINK-5954           
1 56318U 23058B   24020.57379743 -.00000259  00000+0 -15562-4 0  9994
2 56318  97.6552  23.4552 0002746 190.0290 170.0880 15.01258633 40888
STARLINK-6039           
1 56319U 23058C   24020.57195060 -.00000470  00000+0 -32015-4 0  9990
2 56319  97.6554  23.4575 0002302 155.8646 204.2687 15.01258142 40743
STARLINK-5988           
1 56320U 23058D   24020.57774561 -.00000585  00000+0 -40974-4 0  9991
2 56320  97.6551  23.4502 0001389 195.2022 164.9160 15.01259430 40897
STARLINK-5876           
1 56321U 23058E   24020.56639203 -.00013933  00000+0 -10822-2 0  9992
2 56321  97.6567  23.4650 0002052 148.7638 211.3709 15.01262849 40729
STARLINK-6033           
1 56322U 23058F   24020.57565222 -.00000473  00000+0 -32238-4 0  9995
2 56322  97.6549  23.4529 0001757 191.4903 168.6281 15.01267480 40888
STARLINK-6035           
1 56323U 23058G   24020.56824670 -.00000018  00000+0  31789-5 0  9995
2 56323  97.6570  23.4627 0001908 141.7721 218.3639 15.01259362 40741
STARLINK-6034           
1 56324U 23058H   24020.57009990  .00000071  00000+0  10123-4 0  9993
2 56324  97.6564  23.4597 0002519 136.4732 223.6691 15.01259387 40747
STARLINK-5981           
1 56325U 23058J   24020.56084094 -.00000407  00000+0 -27053-4 0  9996
2 56325  97.6589  23.4802 0001329  82.8300 277.3075 15.01264305 40745
STARLINK-5980           
1 56326U 23058K   24020.57034457  .00000240  00000+0  23307-4 0  9997
2 56326  97.6562  23.4596 0002928 141.0731 219.0705 15.01259128 40884
