OBJECT_NAME,OBJECT_ID,EPOCH,MEAN_MOTION,ECCENTRICITY,INCLINATION,RA_OF_ASC_NODE,ARG_OF_PERICENTER,MEAN_ANOMALY,EPHEMERIS_TYPE,CLASSIFICATION_TYPE,NORAD_CAT_ID,ELEMENT_SET_NO,REV_AT_EPOCH,BSTAR,MEAN_MOTION_DOT,MEAN_MOTION_DDOT
STARLINK-30103,2023-056E,2024-01-20T14:39:20.426976,15.02537513,0.0001278,43.0022,123.2859,278.6142,81.4555,0,U,56290,999,4283,0.00085956,0.00011427,0.0
STARLINK-30113,2023-056F,2024-01-20T14:48:55.450944,15.02547101,0.0001398,43.0024,123.3293,269.6049,90.4634,0,U,56291,999,4283,0.00083033,0.00011034,0.0
STARLINK-30098,2023-056G,2024-01-20T14:34:33.528000,15.02577924,0.0001288,43.0021,123.2504,278.3621,81.7075,0,U,56292,999,4283,0.0016197,0.00021768,0.0
STARLINK-30090,2023-056H,2024-01-20T14:25:07.014432,15.02544521,0.0001541,43.0018,124.0432,278.2508,81.816,0,U,56293,999,4282,0.0016891,0.00022692,0.0
STARLINK-30049,2023-056J,2024-01-20T14:20:18.763296,15.02542562,0.0001142,43.0033,123.9606,280.2366,79.8347,0,U,56294,999,4282,9.3653e-05,1.062e-05,0.0
STARLINK-30083,2023-056K,2024-01-20T14:11:27.017952,15.02541658,0.0001259,43.0032,97.8266,273.822,86.2479,0,U,56295,999,4312,0.0001894,2.356e-05,0.0
STARLINK-30089,2023-056L,2024-01-20T14:11:48.843456,15.02547251,0.0001093,43.0034,84.7915,280.9148,79.1571,0,U,56296,999,4267,0.00091268,0.0001215,0.0
STARLINK-30086,2023-056M,2024-01-20T18:38:43.683072,15.02563033,0.0001288,43.0021,122.7277,286.9766,73.0935,0,U,56297,999,4225,0.0026005,0.00035126,0.0
STARLINK-30109,2023-056N,2024-01-20T18:48:18.799488,15.02568615,0.000129,43.0022,122.7796,280.5377,79.532,0,U,56298,999,4225,0.0026138,0.00035313,0.0
STARLINK-30108,2023-056P,2024-01-20T14:49:27.652224,15.02540652,0.000129,43.0022,111.1204,277.1339,82.9356,0,U,56299,999,4303,0.0018427,0.00024779,0.0
STARLINK-30104,2023-056Q,2024-01-20T17:41:12.022080,15.02549569,0.0001304,43.0021,122.5132,277.2379,82.8315,0,U,56300,999,4225,0.00036433,4.723e-05,0.0
STARLINK-30101,2023-056R,2024-01-20T13:37:10.262496,15.02543253,0.0001445,43.0022,123.8015,273.9787,86.089,0,U,56301,999,4288,0.0017607,0.00023666,0.0
STARLINK-30111,2023-056S,2024-01-20T13:27:33.854400,15.02540888,0.0001404,43.0023,123.6869,268.5677,91.5004,0,U,56302,999,4288,0.00020166,2.522e-05,0.0
STARLINK-30097,2023-056T,2024-01-20T16:00:00.999936,15.27569913,0.0024422,43.0008,97.598,25.1224,210.4488,0,U,56303,999,588,0.0040834,0.0011477,0.0
STARLINK-30099,2023-056U,2024-01-20T16:34:13.850976,15.0256769,0.0001248,43.0023,122.9299,278.729,81.3411,0,U,56304,999,4224,0.0020244,0.00027272,0.0
STARLINK-30094,2023-056V,2024-01-20T17:26:44.566944,15.01743347,0.0001285,43.0023,122.3419,282.6729,77.3969,0,U,56305,999,4226,0.0024269,0.00032048,0.0
STARLINK-30112,2023-056W,2024-01-20T16:43:49.329408,15.0254414,0.000135,43.0026,122.991,288.7051,71.3644,0,U,56306,999,4225,0.0018704,0.00025159,0.0
STARLINK-6038,2023-058A,2024-01-20T13:51:36.225504,15.01259662,0.0001578,97.6549,23.4506,173.2112,186.9134,0,U,56317,999,4074,-2.0156e-05,-3.18e-06,0.0
STARLINK-5954,2023-058B,2024-01-20T13:46:16.097952,15.01258633,0.0002746,97.6552,23.4552,190.029,170.088,0,U,56318,999,4088,-1.5562e-05,-2.59e-06,0.0
STARLINK-6039,2023-058C,2024-01-20T13:43:36.531840,15.01258142,0.0002302,97.6554,23.4575,155.8646,204.2687,0,U,56319,999,4074,-3.2015e-05,-4.7e-06,0.0
STARLINK-5988,2023-058D,2024-01-20T13:51:57.220704,15.0125943,0.0001389,97.6551,23.4502,195.2022,164.916,0,U,56320,999,4089,-4.0974e-05,-5.85e-06,0.0
STARLINK-5876,2023-058E,2024-01-20T13:35:36.271392,15.01262849,0.0002052,97.6567,23.465,148.7638,211.3709,0,U,56321,999,4072,-0.0010822,-0.00013933,0.0
STARLINK-6033,2023-058F,2024-01-20T13:48:56.351808,15.0126748,0.0001757,97.6549,23.4529,191.4903,168.6281,0,U,56322,999,4088,-3.2238e-05,-4.73e-06,0.0
STARLINK-6035,2023-058G,2024-01-20T13:38:16.514880,15.01259362,0.0001908,97.657,23.4627,141.7721,218.3639,0,U,56323,999,4074,3.1789e-06,-1.8e-07,0.0
STARLINK-6034,2023-058H,2024-01-20T13:40:56.631360,15.01259387,0.0002519,97.6564,23.4597,136.4732,223.6691,0,U,56324,999,4074,1.0123e-05,7.1e-07,0.0
STARLINK-5981,2023-058J,2024-01-20T13:27:36.657216,15.01264305,0.0001329,97.6589,23.4802,82.83,277.3075,0,U,56325,999,4074,-2.7053e-05,-4.07e-06,0.0
STARLINK-5980,2023-058K,2024-01-20T13:41:17.770848,15.01259128,0.0002928,97.6562,23.4596,141.0731,219.0705,0,U,56326,999,4088,2.3307e-05,2.4e-06,0.0
